OBJECT_NAME,OBJECT_ID,EPOCH,MEAN_MOTION,ECCENTRICITY,INCLINATION,RA_OF_ASC_NODE,ARG_OF_PERICENTER,MEAN_ANOMALY,EPHEMERIS_TYPE,CLASSIFICATION_TYPE,NORAD_CAT_ID,ELEMENT_SET_NO,REV_AT_EPOCH,BSTAR,MEAN_MOTION_DOT,MEAN_MOTION_DDOT
INTELSAT 23 (IS-23),2012-057A,2026-07-07T01:21:10.850112,1.00275567,.0000405,0.0130,52.9192,98.8720,100.5402,0,U,38867,999,5015,0,-.27E-5,0
FM-6,2013-058A,2026-07-06T21:47:33.811008,1.00271504,.0002812,0.0450,67.8318,116.6951,310.9204,0,U,39360,999,4627,0,0,0
INTELSAT 30 (IS-30),2014-062A,2026-07-06T23:36:29.647008,1.00271916,.0001498,0.0149,43.0335,348.3881,152.6184,0,U,40271,999,699,0,-.136E-5,0
DIRECTV 14,2014-078B,2026-07-07T04:34:39.236160,1.00272095,.0000194,0.0114,40.3094,296.6326,277.6413,0,U,40333,999,4224,0,-.11E-5,0
DIRECTV 15,2015-026A,2026-07-07T03:56:04.788384,1.00266602,.0000088,0.0157,67.0607,192.3375,341.8878,0,U,40663,999,4066,0,-.87E-6,0
SKY MEXICO-1,2015-026B,2026-07-07T03:18:28.297728,1.00270863,.0002474,0.0177,299.2473,187.2510,129.4372,0,U,40664,999,4065,0,-.219E-5,0
INTELSAT 34 (IS-34),2015-039A,2026-07-07T03:13:02.307936,1.00273565,.0000502,0.0132,330.2943,54.1290,253.4592,0,U,40874,999,3983,0,-.27E-5,0
INTELSAT 31 (IS-31),2016-035A,2026-07-06T06:29:56.251680,1.00270733,.00008295,0.0403,211.4121,55.4380,19.8435,0,U,41581,999,3687,0,-.136E-5,0
INTELSAT 36 (IS-36),2016-053A,2026-07-07T03:48:21.421728,1.00270153,.0002215,0.0094,10.1998,332.1572,68.3588,0,U,41747,999,3615,0,-.9E-7,0
INTELSAT 32E (IS-32E),2017-007B,2026-07-07T04:38:38.814720,1.00269679,.000074,0.0160,332.9685,11.3752,327.3135,0,U,41945,999,3442,0,-.254E-5,0
INTELSAT 35E (IS-35E),2017-041A,2026-07-07T04:30:38.614752,1.00271699,.0001704,0.0154,11.3752,93.1241,213.8363,0,U,42818,999,3301,0,-.223E-5,0
INTELSAT 37E (IS-37E),2017-059A,2026-07-07T04:22:38.909856,1.00269854,.0002525,0.0219,34.1482,80.1131,218.5614,0,U,42950,999,3226,0,0,0
AZERSPACE 2 (IS-38),2018-074A,2026-07-07T03:42:38.461248,1.00270470,.0001239,0.0208,23.8612,92.6719,269.3654,0,U,43632,999,2864,0,0,0
HORIZONS-3E,2018-074B,2026-07-06T21:26:28.334400,1.00269288,.000086,0.0376,227.4998,64.0191,123.9783,0,U,43633,999,2853,0,-.16E-6,0
AT&T T-16,2019-034A,2026-07-07T04:34:39.173952,1.00268802,.0000473,0.0133,65.3579,248.2524,299.3545,0,U,44333,999,2583,0,-.1E-5,0
INTELSAT 39 (IS-39),2019-049B,2026-07-07T03:46:29.101728,1.00268632,.0000902,0.0197,19.9142,303.4172,80.3703,0,U,44476,999,2532,0,0,0
GALAXY 30 (G-30),2020-056C,2026-07-06T18:19:48.355968,1.00270907,.0002186,0.0206,38.7570,67.2773,328.6685,0,U,46114,999,2148,0,.52E-6,0
GALAXY 33 (G-33),2022-128A,2026-07-07T03:09:43.331328,1.00272897,.0001787,0.0156,314.4069,151.3995,93.7340,0,U,54026,999,1394,0,.94E-6,0
GALAXY 34 (G-34),2022-128B,2026-07-06T16:36:07.829856,1.00275248,.0001829,0.0172,18.6774,102.5440,283.4893,0,U,54027,999,1410,0,0,0
GALAXY 31 (G-31),2022-153A,2026-07-07T01:11:39.828192,1.00272451,.0001321,0.0204,270.7432,196.1117,75.0845,0,U,54243,999,733,0,.28E-6,0
GALAXY 32 (G-32),2022-153B,2026-07-07T01:20:14.418816,1.00270818,.0001622,0.0098,22.5735,26.6946,164.8256,0,U,54244,999,1334,0,-.159E-5,0
GALAXY 35 (G-35),2022-170A,2026-07-07T03:56:16.308960,1.00271660,.0002071,0.0226,89.8216,18.9657,142.3167,0,U,54741,999,1309,0,-.147E-5,0
GALAXY 36 (G-36),2022-170B,2026-07-07T03:59:30.557760,1.00271033,.000266,0.0242,135.5698,322.0393,158.4068,0,U,54742,999,1297,0,-.17E-5,0
GALAXY 37 (G-37),2023-112A,2026-07-07T01:10:02.483040,1.00272229,.0001859,0.0187,34.5053,79.1357,61.8936,0,U,57493,999,1074,0,.63E-6,0
