INTELSAT 23 (IS-23)     
1 38867U 12057A   26188.05637558 -.00000270  00000+0  00000+0 0  9999
2 38867   0.0130  52.9192 0000405  98.8720 100.5402  1.00275567 50155
FM-6                    
1 39360U 13058A   26187.90803022  .00000000  00000+0  00000+0 0  9994
2 39360   0.0450  67.8318 0002812 116.6951 310.9204  1.00271504 46275
INTELSAT 30 (IS-30)     
1 40271U 14062A   26187.98367647 -.00000136  00000+0  00000+0 0  9990
2 40271   0.0149  43.0335 0001498 348.3881 152.6184  1.00271916  6993
DIRECTV 14              
1 40333U 14078B   26188.19073190 -.00000110  00000+0  00000+0 0  9999
2 40333   0.0114  40.3094 0000194 296.6326 277.6413  1.00272095 42247
DIRECTV 15              
1 40663U 15026A   26188.16394431 -.00000087  00000+0  00000+0 0  9993
2 40663   0.0157  67.0607 0000088 192.3375 341.8878  1.00266602 40664
SKY MEXICO-1            
1 40664U 15026B   26188.13782752 -.00000219  00000+0  00000+0 0  9995
2 40664   0.0177 299.2473 0002474 187.2510 129.4372  1.00270863 40654
INTELSAT 34 (IS-34)     
1 40874U 15039A   26188.13405449 -.00000270  00000+0  00000+0 0  9994
2 40874   0.0132 330.2943 0000502  54.1290 253.4592  1.00273565 39835
INTELSAT 31 (IS-31)     
1 41581U 16035A   26187.27078995 -.00000136  00000+0  00000+0 0  9994
2 41581   0.0403 211.4121 0000829  55.4380  19.8435  1.00270733 36871
INTELSAT 36 (IS-36)     
1 41747U 16053A   26188.15858127 -.00000009  00000+0  00000+0 0  9998
2 41747   0.0094  10.1998 0002215 332.1572  68.3588  1.00270153 36151
INTELSAT 32E (IS-32E)   
1 41945U 17007B   26188.19350480 -.00000254  00000+0  00000+0 0  9993
2 41945   0.0160 332.9685 0000740  11.3752 327.3135  1.00269679 34425
INTELSAT 35E (IS-35E)   
1 42818U 17041A   26188.18794693 -.00000223  00000+0  00000+0 0  9994
2 42818   0.0154  11.3752 0001704  93.1241 213.8363  1.00271699 33014
INTELSAT 37E (IS-37E)   
1 42950U 17059A   26188.18239479  .00000000  00000+0  00000+0 0  9998
2 42950   0.0219  34.1482 0002525  80.1131 218.5614  1.00269854 32269
AZERSPACE 2 (IS-38)     
1 43632U 18074A   26188.15461182  .00000000  00000+0  00000+0 0  9999
2 43632   0.0208  23.8612 0001239  92.6719 269.3654  1.00270470 28647
HORIZONS-3E             
1 43633U 18074B   26187.89338350 -.00000016  00000+0  00000+0 0  9998
2 43633   0.0376 227.4998 0000860  64.0191 123.9783  1.00269288 28530
AT&T T-16               
1 44333U 19034A   26188.19073118 -.00000100  00000+0  00000+0 0  9999
2 44333   0.0133  65.3579 0000473 248.2524 299.3545  1.00268802 25834
INTELSAT 39 (IS-39)     
1 44476U 19049B   26188.15728127  .00000000  00000+0  00000+0 0  9994
2 44476   0.0197  19.9142 0000902 303.4172  80.3703  1.00268632 25322
GALAXY 30 (G-30)        
1 46114U 20056C   26187.76375412  .00000052  00000+0  00000+0 0  9993
2 46114   0.0206  38.7570 0002186  67.2773 328.6685  1.00270907 21484
GALAXY 33 (G-33)        
1 54026U 22128A   26188.13175152  .00000094  00000+0  00000+0 0  9993
2 54026   0.0156 314.4069 0001787 151.3995  93.7340  1.00272897 13943
GALAXY 34 (G-34)        
1 54027U 22128B   26187.69175729  .00000000  00000+0  00000+0 0  9991
2 54027   0.0172  18.6774 0001829 102.5440 283.4893  1.00275248 14101
GALAXY 31 (G-31)        
1 54243U 22153A   26188.04976653  .00000028  00000+0  00000+0 0  9994
2 54243   0.0204 270.7432 0001321 196.1117  75.0845  1.00272451  7338
GALAXY 32 (G-32)        
1 54244U 22153B   26188.05572244 -.00000159  00000+0  00000+0 0  9990
2 54244   0.0098  22.5735 0001622  26.6946 164.8256  1.00270818 13346
GALAXY 35 (G-35)        
1 54741U 22170A   26188.16407765 -.00000147  00000+0  00000+0 0  9995
2 54741   0.0226  89.8216 0002071  18.9657 142.3167  1.00271660 13093
GALAXY 36 (G-36)        
1 54742U 22170B   26188.16632590 -.00000170  00000+0  00000+0 0  9998
2 54742   0.0242 135.5698 0002660 322.0393 158.4068  1.00271033 12973
GALAXY 37 (G-37)        
1 57493U 23112A   26188.04863985  .00000063  00000+0  00000+0 0  9992
2 57493   0.0187  34.5053 0001859  79.1357  61.8936  1.00272229 10741
